ORBCOMM FM36            
1 25984U 99065E   24192.52986091  .00001325  00000+0  50176-3 0  9997
2 25984  45.0399 267.4413 0002740 337.1155  22.9570 14.35845724285277
ORBCOMM FM35            
1 25985U 99065F   24192.52169623  .00000993  00000+0  39186-3 0  9990
2 25985  45.0401 270.3427 0002737 168.3380 191.7531 14.35354162285666
ORBCOMM FM34            
1 25986U 99065G   24192.56295107  .00001041  00000+0  40896-3 0  9997
2 25986  45.0394 270.6943 0001410  71.3838 288.7163 14.35331274285782
ORBCOMM FM38            
1 33060U 08031A   24192.55584544  .00002476  00000+0  36874-3 0  9991
2 33060  48.4402 139.4921 0005632  12.6948 347.4108 14.77930813864155
ORBCOMM FM29            
1 33062U 08031C   24192.63563929  .00002535  00000+0  37959-3 0  9997
2 33062  48.4386 153.9153 0006812 357.4164 172.7496 14.77600669863574
ORBCOMM FM39            
1 33063U 08031D   24192.47627517  .00002114  00000+0  32918-3 0  9997
2 33063  48.4392 175.6607 0007941 332.2256  27.8232 14.76547866863244
